OBJECT_NAME,OBJECT_ID,EPOCH,MEAN_MOTION,ECCENTRICITY,INCLINATION,RA_OF_ASC_NODE,ARG_OF_PERICENTER,MEAN_ANOMALY,EPHEMERIS_TYPE,CLASSIFICATION_TYPE,NORAD_CAT_ID,ELEMENT_SET_NO,REV_AT_EPOCH,BSTAR,MEAN_MOTION_DOT,MEAN_MOTION_DDOT
ONEWEB-0198,2021-031G,2026-06-15T20:33:29.112480,13.14502518,.00020388,87.8954,289.9770,113.2360,246.8985,0,U,48216,999,24831,.27958145E-3,.116E-5,0
ONEWEB-0189,2021-031H,2026-06-15T20:51:33.187104,13.14503316,.00019759,87.8968,289.9604,110.9343,249.1999,0,U,48217,999,24805,.67525194E-3,.263E-5,0
ONEWEB-0196,2021-031J,2026-06-15T20:19:34.876416,13.14503279,.00019847,87.8963,289.9739,105.0067,255.1283,0,U,48218,999,24805,-.20081202E-3,-.62E-6,0
ONEWEB-0183,2021-031K,2026-06-15T21:32:39.141600,13.14502995,.0002073,87.8961,289.9617,96.6815,263.4551,0,U,48219,999,24815,-.50438829E-3,-.174E-5,0
ONEWEB-0185,2021-031L,2026-06-15T20:20:42.663264,13.14502851,.00024329,87.8968,289.9652,100.9602,259.1801,0,U,48220,999,24807,.10899416E-3,.53E-6,0
ONEWEB-0187,2021-031M,2026-06-15T21:41:34.594368,13.14512298,.00022765,87.8936,289.9700,101.1956,258.9430,0,U,48221,999,24809,.83055262E-3,.321E-5,0
ONEWEB-0192,2021-031N,2026-06-15T19:08:46.686912,13.14501801,.00018655,87.8961,289.9812,103.3698,256.7640,0,U,48222,999,24799,.55002213E-3,.217E-5,0
ONEWEB-0219,2021-031P,2026-06-15T20:28:41.193984,13.14502772,.00021499,87.8962,289.9622,103.8819,256.2550,0,U,48223,999,24820,-.63720584E-3,-.223E-5,0
ONEWEB-0202,2021-031Q,2026-06-15T20:01:18.927840,13.14502854,.00018255,87.8966,289.9784,121.8529,238.2779,0,U,48224,999,24818,-.62441014E-3,-.219E-5,0
ONEWEB-0204,2021-031R,2026-06-15T20:50:24.950112,13.14502815,.00021585,87.8966,289.9660,95.2355,264.9021,0,U,48225,999,24808,.42810059E-3,.172E-5,0
ONEWEB-0205,2021-031S,2026-06-15T18:25:22.578816,13.14503111,.00021114,87.8970,289.9794,106.4561,253.6801,0,U,48226,999,24808,-.99633334E-3,-.357E-5,0
ONEWEB-0206,2021-031T,2026-06-15T21:25:47.843040,13.14503410,.00018095,87.8968,289.9558,96.5098,263.6237,0,U,48227,999,24805,-.48508496E-3,-.167E-5,0
ONEWEB-0182,2021-031U,2026-06-15T21:18:57.136320,13.14502403,.00020519,87.8965,289.9645,95.4116,264.7248,0,U,48228,999,24826,-.88654481E-4,-.2E-6,0
ONEWEB-0186,2021-031V,2026-06-15T21:34:55.928352,13.14502410,.00020143,87.8974,289.9526,102.5731,257.5624,0,U,48229,999,24821,-.6707562E-3,-.236E-5,0
ONEWEB-0181,2021-031W,2026-06-15T21:02:58.253568,13.14503143,.00019644,87.8955,289.9869,106.3854,253.7492,0,U,48230,999,24806,.46569527E-3,.185E-5,0
ONEWEB-0188,2021-031X,2026-06-15T20:08:09.210336,13.14504082,.00019693,87.8955,289.9937,101.1830,258.9521,0,U,48231,999,24796,-.50904673E-3,-.176E-5,0
ONEWEB-0220,2021-031Y,2026-06-15T21:05:14.156448,13.14502183,.00022205,87.8972,289.9587,104.2690,255.8686,0,U,48232,999,24823,.30483293E-3,.126E-5,0
ONEWEB-0165,2021-031Z,2026-06-15T21:46:20.764992,13.14501187,.00019629,87.8963,289.9658,112.5463,247.5875,0,U,48233,999,24819,-.74369761E-3,-.263E-5,0
ONEWEB-0199,2021-031AA,2026-06-15T21:23:31.001856,13.14502893,.00018272,87.8972,289.9548,95.4398,264.6940,0,U,48234,999,24809,-.41663006E-3,-.142E-5,0
ONEWEB-0203,2021-031AB,2026-06-15T21:09:49.395744,13.14502350,.00017467,87.8970,289.9601,102.5545,257.5780,0,U,48235,999,24810,.11452922E-3,.55E-6,0
ONEWEB-0197,2021-031AC,2026-06-15T20:33:04.708800,13.14503986,.00022049,87.8959,289.9516,97.5737,262.5644,0,U,48236,999,24801,.3772664E-3,.153E-5,0
ONEWEB-0194,2021-031AD,2026-06-15T20:03:35.667072,13.14502138,.00017188,87.8964,289.9775,98.0356,262.0969,0,U,48237,999,24818,-.68480477E-3,-.241E-5,0
ONEWEB-0193,2021-031AE,2026-06-15T20:26:25.608192,13.14502849,.00015455,87.8963,289.9650,93.4059,266.7247,0,U,48238,999,24813,.13287035E-4,.18E-6,0
ONEWEB-0191,2021-031AF,2026-06-15T20:42:25.278912,13.14502777,.0002048,87.8972,289.9612,96.3270,263.8093,0,U,48239,999,24799,.54875372E-3,.216E-5,0
ONEWEB-0195,2021-031AG,2026-06-15T20:09:17.496576,13.14501579,.00020309,87.8969,289.9666,111.7912,248.3434,0,U,48240,999,24797,-.49191611E-3,-.17E-5,0
ONEWEB-0201,2021-031AH,2026-06-15T19:52:21.236448,13.14504385,.00022408,87.8962,289.9849,98.3913,261.7471,0,U,48241,999,24820,-.65633884E-3,-.231E-5,0
ONEWEB-0207,2021-031AJ,2026-06-15T21:13:14.536992,13.14502649,.00021877,87.8970,289.9585,98.9168,261.2209,0,U,48242,999,24812,.11392282E-3,.55E-6,0
ONEWEB-0208,2021-031AK,2026-06-15T20:46:59.109024,13.14503733,.00019507,87.8963,289.9684,112.3712,247.7624,0,U,48243,999,24813,.34981719E-3,.142E-5,0
ONEWEB-0200,2021-031AL,2026-06-15T21:44:03.743232,13.14502299,.00019969,87.8973,289.9473,103.0201,257.1152,0,U,48244,999,24806,-.76428575E-3,-.271E-5,0
ONEWEB-0217,2021-031AM,2026-06-15T20:17:15.153792,13.14524548,.00019447,87.8966,289.9640,112.5631,247.5704,0,U,48245,999,24800,.58904523E-2,.2198E-4,0
