ONEWEB-0198             
1 48216U 21031G   26166.85658695  .00000116  00000+0  27958-3 0  9992
2 48216  87.8954 289.9770 0002038 113.2360 246.8985 13.14502518248315
ONEWEB-0189             
1 48217U 21031H   26166.86913411  .00000263  00000+0  67525-3 0  9991
2 48217  87.8968 289.9604 0001975 110.9343 249.1999 13.14503316248050
ONEWEB-0196             
1 48218U 21031J   26166.84693144 -.00000062  00000+0 -20081-3 0  9993
2 48218  87.8963 289.9739 0001984 105.0067 255.1283 13.14503279248054
ONEWEB-0183             
1 48219U 21031K   26166.89767525 -.00000174  00000+0 -50439-3 0  9998
2 48219  87.8961 289.9617 0002073  96.6815 263.4551 13.14502995248159
ONEWEB-0185             
1 48220U 21031L   26166.84771601  .00000053  00000+0  10899-3 0  9995
2 48220  87.8968 289.9652 0002432 100.9602 259.1801 13.14502851248071
ONEWEB-0187             
1 48221U 21031M   26166.90387262  .00000321  00000+0  83055-3 0  9991
2 48221  87.8936 289.9700 0002276 101.1956 258.9430 13.14512298248095
ONEWEB-0192             
1 48222U 21031N   26166.79776258  .00000217  00000+0  55002-3 0  9991
2 48222  87.8961 289.9812 0001865 103.3698 256.7640 13.14501801247993
ONEWEB-0219             
1 48223U 21031P   26166.85325456 -.00000223  00000+0 -63721-3 0  9995
2 48223  87.8962 289.9622 0002149 103.8819 256.2550 13.14502772248208
ONEWEB-0202             
1 48224U 21031Q   26166.83424685 -.00000219  00000+0 -62441-3 0  9991
2 48224  87.8966 289.9784 0001825 121.8529 238.2779 13.14502854248181
ONEWEB-0204             
1 48225U 21031R   26166.86834433  .00000172  00000+0  42810-3 0  9995
2 48225  87.8966 289.9660 0002158  95.2355 264.9021 13.14502815248088
ONEWEB-0205             
1 48226U 21031S   26166.76762244 -.00000357  00000+0 -99633-3 0  9997
2 48226  87.8970 289.9794 0002111 106.4561 253.6801 13.14503111248086
ONEWEB-0206             
1 48227U 21031T   26166.89291485 -.00000167  00000+0 -48508-3 0  9990
2 48227  87.8968 289.9558 0001809  96.5098 263.6237 13.14503410248052
ONEWEB-0182             
1 48228U 21031U   26166.88816130 -.00000020  00000+0 -88654-4 0  9995
2 48228  87.8965 289.9645 0002051  95.4116 264.7248 13.14502403248264
ONEWEB-0186             
1 48229U 21031V   26166.89925843 -.00000236  00000+0 -67076-3 0  9992
2 48229  87.8974 289.9526 0002014 102.5731 257.5624 13.14502410248216
ONEWEB-0181             
1 48230U 21031W   26166.87706312  .00000185  00000+0  46570-3 0  9997
2 48230  87.8955 289.9869 0001964 106.3854 253.7492 13.14503143248066
ONEWEB-0188             
1 48231U 21031X   26166.83899549 -.00000176  00000+0 -50905-3 0  9998
2 48231  87.8955 289.9937 0001969 101.1830 258.9521 13.14504082247966
ONEWEB-0220             
1 48232U 21031Y   26166.87863607  .00000126  00000+0  30483-3 0  9991
2 48232  87.8972 289.9587 0002220 104.2690 255.8686 13.14502183248235
ONEWEB-0165             
1 48233U 21031Z   26166.90718478 -.00000263  00000+0 -74370-3 0  9998
2 48233  87.8963 289.9658 0001962 112.5463 247.5875 13.14501187248193
ONEWEB-0199             
1 48234U 21031AA  26166.89133104 -.00000142  00000+0 -41663-3 0  9999
2 48234  87.8972 289.9548 0001827  95.4398 264.6940 13.14502893248095
ONEWEB-0203             
1 48235U 21031AB  26166.88182171  .00000055  00000+0  11453-3 0  9992
2 48235  87.8970 289.9601 0001746 102.5545 257.5780 13.14502350248101
ONEWEB-0197             
1 48236U 21031AC  26166.85630450  .00000153  00000+0  37727-3 0  9999
2 48236  87.8959 289.9516 0002204  97.5737 262.5644 13.14503986248011
ONEWEB-0194             
1 48237U 21031AD  26166.83582948 -.00000241  00000+0 -68480-3 0  9996
2 48237  87.8964 289.9775 0001718  98.0356 262.0969 13.14502138248188
ONEWEB-0193             
1 48238U 21031AE  26166.85168528  .00000018  00000+0  13287-4 0  9999
2 48238  87.8963 289.9650 0001545  93.4059 266.7247 13.14502849248131
ONEWEB-0191             
1 48239U 21031AF  26166.86279258  .00000216  00000+0  54875-3 0  9991
2 48239  87.8972 289.9612 0002048  96.3270 263.8093 13.14502777247996
ONEWEB-0195             
1 48240U 21031AG  26166.83978584 -.00000170  00000+0 -49192-3 0  9995
2 48240  87.8969 289.9666 0002030 111.7912 248.3434 13.14501579247973
ONEWEB-0201             
1 48241U 21031AH  26166.82802357 -.00000231  00000+0 -65634-3 0  9996
2 48241  87.8962 289.9849 0002240  98.3913 261.7471 13.14504385248209
ONEWEB-0207             
1 48242U 21031AJ  26166.88419603  .00000055  00000+0  11392-3 0  9995
2 48242  87.8970 289.9585 0002187  98.9168 261.2209 13.14502649248120
ONEWEB-0208             
1 48243U 21031AK  26166.86596191  .00000142  00000+0  34982-3 0  9999
2 48243  87.8963 289.9684 0001950 112.3712 247.7624 13.14503733248132
ONEWEB-0200             
1 48244U 21031AL  26166.90559888 -.00000271  00000+0 -76429-3 0  9994
2 48244  87.8973 289.9473 0001996 103.0201 257.1152 13.14502299248069
ONEWEB-0217             
1 48245U 21031AM  26166.84531428  .00002198  00000+0  58905-2 0  9994
2 48245  87.8966 289.9640 0001944 112.5631 247.5704 13.14524548248004
